TOMORROW-S1             
1 60479U 24149M   26068.72470524  .00008620  00000+0  28856-3 0  9996
2 60479  97.3791 149.6044 0001819 207.2040 152.9106 15.31198362 86867
STARLINK-35090          
1 65698U 25212Y   26068.03994938  .00014968  00000+0  51702-3 0  9998
2 65698  53.1621 348.7163 0001237 118.7965 241.3160 15.30164474 27142
